HST                     
1 20580U 90037B   26168.14321654  .00005620  00000+0  17616-3 0  9999
2 20580  28.4720  80.8753 0001815 141.8279 218.2446 15.30747004788560
POLAR                   
1 23802U 96013A   26167.26675754  .00000137  00000+0  00000+0 0  9997
2 23802  79.8528 227.0631 6469542 209.1106  89.7802  1.29846135144846
SWAS                    
1 25560U 98071A   26168.54577852  .00002290  00000+0  14847-3 0  9998
2 25560  69.8947 226.5947 0008642 259.7475 100.2715 15.09627773497325
CXO                     
1 25867U 99040B   26169.37713324  .00000529  00000+0  00000+0 0  9998
2 25867  56.2189 116.5542 7835469 310.3049   0.1821  0.37804062 17322
XMM-NEWTON              
1 25989U 99066A   26169.34668136 -.00000002  00000+0  00000+0 0  9995
2 25989  64.4794 282.9700 4673195  64.9038   0.0897  0.50127427 23010
TERRA                   
1 25994U 99068A   26168.57976503  .00000315  00000+0  73025-4 0  9995
2 25994  97.9456 218.1105 0001612 187.9869 308.7485 14.61103398409663
CLUSTER II-FM7 (SAMBA)  
1 26410U 00041A   26168.13893488  .00013373  00000+0  00000+0 0  9990
2 26410 149.9159  50.9864 9054007 268.1291 359.6411  0.44868040 20307
CLUSTER II-FM8 (TANGO)  
1 26464U 00045B   26166.18760269  .00011725  00000+0  00000+0 0  9995
2 26464 150.1504  51.7507 9057004 268.7261   2.8044  0.44418308 20307
ODIN                    
1 26702U 01007A   26168.60245193  .00159631  00000+0  10170-2 0  9993
2 26702  97.3826 209.5718 0006611 142.1991 217.9740 15.75927348389468
TIMED                   
1 26998U 01055B   26168.54341306  .00000823  00000+0  78266-4 0  9999
2 26998  74.0674 234.3013 0001136 334.9529  25.1601 14.95295327330879
CORIOLIS                
1 27640U 03001A   26168.47904147  .00000070  00000+0  53628-4 0  9996
2 27640  98.7125 175.3594 0013389 207.8782 152.1679 14.19944827214260
SORCE                   
1 27651U 03004A   26168.53803948  .00002044  00000+0  15703-3 0  9999
2 27651  39.9905 259.6767 0016415  51.8257 308.4013 15.03714599271952
MOST                    
1 27843U 03031D   26168.49287231  .00000039  00000+0  38148-4 0  9999
2 27843  98.7045 176.2146 0008738 249.4437 110.5803 14.21322549190758
SCISAT 1                
1 27858U 03036A   26168.42822494  .00000383  00000+0  53593-4 0  9992
2 27858  73.9283 170.8638 0008538 240.6549 119.3775 14.81447732231483
SWIFT                   
1 28485U 04047A   26166.40597521  .00042527  00000+0  35480-3 0  9998
2 28485  20.5516 198.6409 0001619 255.9834 104.0432 15.68175033186589
HINODE (SOLAR-B)        
1 29479U 06041A   26168.59416255  .00000515  00000+0  96915-4 0  9996
2 29479  98.0547 184.7407 0016001 288.3445  71.6019 14.68623501 54930
SHIJIAN-6 02A (SJ-6 02A)
1 29505U 06046A   26168.61929883  .00005914  00000+0  30315-3 0  9999
2 29505  97.6352 209.6891 0004492 122.8961 237.2705 15.16948734 72337
SHIJIAN-6 02B (SJ-6 02B)
1 29506U 06046B   26168.61292323  .00001197  00000+0  97358-4 0  9992
2 29506  97.7153 197.6691 0015391  59.2038 301.0699 15.01378679 70801
FGRST (GLAST)           
1 33053U 08029A   26168.49049940  .00002189  00000+0  74437-4 0  9993
2 33053  25.5804 202.3766 0007799 332.9313  27.0818 15.23947405995887
SDO                     
1 36395U 10005A   26167.50926725 -.00000097  00000+0  00000+0 0  9995
2 36395  34.6508  86.3517 0001708  44.3809 215.2958  1.00269934 60055
CRYOSAT 2               
1 36508U 10013A   26168.56394954  .00000184  00000+0  44899-4 0  9995
2 36508  92.0356 277.3930 0002150  89.7549 270.3905 14.51899259858134
X-SAT                   
1 37389U 11015C   26168.57655248  .00000003  00000+0  18920-4 0  9999
2 37389  98.3507 145.5816 0013896 347.4491  12.6342 14.25205885787733
GCOM-W1 (SHIZUKU)       
1 38337U 12025A   26168.45600159  .00000361  00000+0  90156-4 0  9991
2 38337  98.2021 109.0075 0001784  74.9241  44.9701 14.57124809749070
NUSTAR                  
1 38358U 12031A   26168.66668981  .00007090  00000+0  38438-3 0  9991
2 38358   6.0273  30.5427 0006848 117.4817  62.5932 15.08805667  1300
NEOSSAT                 
1 39089U 13009D   26168.48826107  .00000106  00000+0  51265-4 0  9990
2 39089  98.4177 348.5137 0009902 242.7674 117.2503 14.35826502696781
BRITE-AUSTRIA           
1 39091U 13009F   26168.41708634  .00000131  00000+0  59167-4 0  9997
2 39091  98.3994 347.8470 0009161 235.6981 124.3339 14.36542205697087
IRIS                    
1 39197U 13033A   26168.50158638  .00000759  00000+0  93167-4 0  9998
2 39197  97.9328   7.7776 0023526 320.7787  39.1722 14.85885670700424
HISAKI (SPRINT-A)       
1 39253U 13049A   26167.83421073  .00000116  00000+0  71628-4 0  9994
2 39253  29.7184 221.8078 0136864  13.9892 346.4420 13.55544715631376
CASSIOPE                
1 39265U 13055A   26168.49007027  .00043114 -52693-6  47039-3 0  9992
2 39265  80.9143  66.3545 0292641  61.4229 301.6117 15.25213955667713
STSAT-3                 
1 39422U 13066G   26168.57888407  .00001769  00000+0  13667-3 0  9994
2 39422  97.6224 138.4608 0011155  44.1339 316.0774 15.02756874684268
